NORAD_CAT_ID,OBJECT_NAME,H0,DIST_H0,H_DIST_MIN,PT_DIST_MIN,DIST_MIN,HF,N_PT,DIST_HF,RCS,CCSDS_OMM_VERS,COMMENT,CREATION_DATE,ORIGINATOR,OBJECT_ID,CENTER_NAME,REF_FRAME,TIME_SYSTEM,MEAN_ELEMENT_THEORY,EPOCH,MEAN_MOTION,ECCENTRICITY,INCLINATION,RA_OF_ASC_NODE,ARG_OF_PERICENTER,MEAN_ANOMALY,EPHEMERIS_TYPE,CLASSIFICATION_TYPE,ELEMENT_SET_NO,REV_AT_EPOCH,BSTAR,MEAN_MOTION_DOT,MEAN_MOTION_DDOT,SEMIMAJOR_AXIS,PERIOD,APOAPSIS,PERIAPSIS,OBJECT_TYPE,RCS_SIZE,COUNTRY_CODE,LAUNCH_DATE,SITE,DECAY_DATE,FILE,GP_ID,TLE_LINE0,TLE_LINE1,TLE_LINE2
27387,ARIANE 5 R/B,2022-08-11T17:35:54.000,1099541.490071239,17:37:25.000,92,888310.6174683279,17:38:55.000,181,1098856.853026571,17.123,2.0,GENERATED VIA SPACE-TRACK.ORG API,2022-08-11T21:46:12,18 SPCS,2002-009B,EARTH,TEME,UTC,SGP4,2022-08-11T19:19:09.254208,14.360798,0.0031606,98.7166,192.5191,317.2418,42.6308,0,U,999,7158,2.0867e-05,1.5e-07,0.0,7149.617,100.273,794.079,748.885,ROCKET BODY,LARGE,FR,2002-03-01,FRGUI,,3534458,210034015,0 ARIANE 5 R/B,1 27387U 02009B   22223.80496822  .00000015  00000-0  20867-4 0  9991,2 27387  98.7166 192.5191 0031606 317.2418  42.6308 14.36079800 71588
27740,ARIANE 3 DEB,2022-08-11T14:06:39.000,1096761.6083572828,14:08:08.000,90,865326.8940008597,14:09:35.000,176,1095390.5367496551,18.1619,2.0,GENERATED VIA SPACE-TRACK.ORG API,2022-08-11T17:30:41,18 SPCS,1984-114E,EARTH,TEME,UTC,SGP4,2022-08-11T06:07:56.875296,10.77262982,0.2319448,6.7428,134.6478,33.3933,126.58,0,U,999,91376,0.0021264,0.00071426,-7.1801e-06,8660.056,133.672,4290.576,273.266,DEBRIS,LARGE,FR,1984-11-10,FRGUI,,3534319,210012685,0 ARIANE 3 DEB,1 27740U 84114E   22223.25551939  .00071426 -71801-5  21264-2 0  9998,2 27740   6.7428 134.6478 2319448  33.3933 126.5800 10.77262982913769
28499,ARIANE 5 R/B,2022-08-11T15:30:26.000,1098087.7308800835,15:32:27.000,122,653113.6218771554,15:34:27.000,241,1094666.2412397366,16.0376,2.0,GENERATED VIA SPACE-TRACK.ORG API,2022-08-11T22:16:12,18 SPCS,2004-049H,EARTH,TEME,UTC,SGP4,2022-08-11T20:04:40.255392,14.80470375,0.0090092,98.1029,341.0989,255.3572,218.8301,0,U,999,95231,4.831e-05,3.34e-06,0.0,7005.977,97.266,690.96,564.724,ROCKET BODY,LARGE,FR,2004-12-18,FRGUI,,3534516,210035654,0 ARIANE 5 R/B,1 28499U 04049H   22223.83657703  .00000334  00000-0  48310-4 0  9999,2 28499  98.1029 341.0989 0090092 255.3572 218.8301 14.80470375952318
28651,PSLV R/B,2022-08-11T14:09:01.000,1098542.355714854,14:10:57.000,117,717254.633000705,14:12:53.000,232,1098503.2075612547,6.1554,2.0,GENERATED VIA SPACE-TRACK.ORG API,2022-08-11T07:36:12,18 SPCS,2005-017C,EARTH,TEME,UTC,SGP4,2022-08-11T04:26:07.785312,14.7399421,0.0073776,97.9302,135.1287,161.3341,199.0599,0,U,999,92757,5.6526e-05,3.35e-06,0.0,7026.483,97.694,700.186,596.509,ROCKET BODY,LARGE,IND,2005-05-05,SRI,,3534126,210002240,0 PSLV R/B,1 28651U 05017C   22223.18481233  .00000335  00000-0  56526-4 0  9995,2 28651  97.9302 135.1287 0073776 161.3341 199.0599 14.73994210927572
29269,SL-19 R/B,2022-08-11T12:46:58.000,1094588.445746651,12:48:57.000,120,678234.8234902913,12:50:57.000,239,1099273.578342804,5.3178,2.0,GENERATED VIA SPACE-TRACK.ORG API,2022-08-11T21:46:12,18 SPCS,2006-031B,EARTH,TEME,UTC,SGP4,2022-08-11T16:03:11.758176,14.95252881,0.0124627,98.2043,117.9671,133.8951,227.2641,0,U,999,87343,7.918e-05,9.44e-06,0.0,6959.725,96.305,668.327,494.853,ROCKET BODY,LARGE,CIS,2006-07-28,PKMTR,,3534458,210034020,0 SL-19 R/B,1 29269U 06031B   22223.66888609  .00000944  00000-0  79180-4 0  9996,2 29269  98.2043 117.9671 0124627 133.8951 227.2641 14.95252881873434
29713,PSLV R/B,2022-08-11T18:53:32.000,1094261.568135385,18:55:32.000,121,659698.5914604065,18:57:32.000,240,1099732.7092155104,10.0335,2.0,GENERATED VIA SPACE-TRACK.ORG API,2022-08-11T21:56:12,18 SPCS,2007-001E,EARTH,TEME,UTC,SGP4,2022-08-11T18:57:14.637600,14.86567521,0.002573,98.0069,205.8025,56.4222,303.9445,0,U,999,84342,0.00012462,1.053e-05,0.0,6986.807,96.867,626.649,590.695,ROCKET BODY,LARGE,IND,2007-01-10,SRI,,3534489,210034647,0 PSLV R/B,1 29713U 07001E   22223.78975275  .00001053  00000-0  12462-3 0  9998,2 29713  98.0069 205.8025 0025730  56.4222 303.9445 14.86567521843420
32766,PEGASUS R/B,2022-08-11T12:40:28.000,1098884.2102113143,12:42:04.000,97,862993.5030544829,12:43:40.000,192,1096807.5361437532,1.1837,2.0,GENERATED VIA SPACE-TRACK.ORG API,2022-08-09T07:16:12,18 SPCS,2008-017B,EARTH,TEME,UTC,SGP4,2022-08-08T21:46:55.520256,15.77766304,0.0047399,12.9968,322.6653,99.2302,261.3349,0,U,999,79384,0.00060496,0.00118938,0.0,6714.908,91.268,368.601,304.945,ROCKET BODY,LARGE,US,2008-04-16,WRAS,,3532502,209869101,0 PEGASUS R/B,1 32766U 08017B   22220.90758704  .00118938  00000-0  60496-3 0  9996,2 32766  12.9968 322.6653 0047399  99.2302 261.3349 15.77766304793840
32766,PEGASUS R/B,2022-08-11T14:16:41.000,1092834.8410908228,14:19:07.000,147,364117.5743674456,14:21:33.000,292,1097746.2214910756,1.1837,2.0,GENERATED VIA SPACE-TRACK.ORG API,2022-08-09T07:16:12,18 SPCS,2008-017B,EARTH,TEME,UTC,SGP4,2022-08-08T21:46:55.520256,15.77766304,0.0047399,12.9968,322.6653,99.2302,261.3349,0,U,999,79384,0.00060496,0.00118938,0.0,6714.908,91.268,368.601,304.945,ROCKET BODY,LARGE,US,2008-04-16,WRAS,,3532502,209869101,0 PEGASUS R/B,1 32766U 08017B   22220.90758704  .00118938  00000-0  60496-3 0  9996,2 32766  12.9968 322.6653 0047399  99.2302 261.3349 15.77766304793840
32766,PEGASUS R/B,2022-08-11T15:53:53.000,1094220.4942749548,15:56:12.000,140,485873.0102098802,15:58:32.000,279,1098408.4404069064,1.1837,2.0,GENERATED VIA SPACE-TRACK.ORG API,2022-08-09T07:16:12,18 SPCS,2008-017B,EARTH,TEME,UTC,SGP4,2022-08-08T21:46:55.520256,15.77766304,0.0047399,12.9968,322.6653,99.2302,261.3349,0,U,999,79384,0.00060496,0.00118938,0.0,6714.908,91.268,368.601,304.945,ROCKET BODY,LARGE,US,2008-04-16,WRAS,,3532502,209869101,0 PEGASUS R/B,1 32766U 08017B   22220.90758704  .00118938  00000-0  60496-3 0  9996,2 32766  12.9968 322.6653 0047399  99.2302 261.3349 15.77766304793840
32766,PEGASUS R/B,2022-08-11T17:31:36.000,1099671.8579932312,17:33:25.000,110,788284.4524577528,17:35:15.000,219,1099578.1443047742,1.1837,2.0,GENERATED VIA SPACE-TRACK.ORG API,2022-08-09T07:16:12,18 SPCS,2008-017B,EARTH,TEME,UTC,SGP4,2022-08-08T21:46:55.520256,15.77766304,0.0047399,12.9968,322.6653,99.2302,261.3349,0,U,999,79384,0.00060496,0.00118938,0.0,6714.908,91.268,368.601,304.945,ROCKET BODY,LARGE,US,2008-04-16,WRAS,,3532502,209869101,0 PEGASUS R/B,1 32766U 08017B   22220.90758704  .00118938  00000-0  60496-3 0  9996,2 32766  12.9968 322.6653 0047399  99.2302 261.3349 15.77766304793840
38347,H-2A DEB,2022-08-11T12:38:28.000,1098483.1328886878,12:40:02.000,95,860384.7575673907,12:41:36.000,188,1096169.5145082814,10.9008,2.0,GENERATED VIA SPACE-TRACK.ORG API,2022-08-11T17:30:41,18 SPCS,2012-025H,EARTH,TEME,UTC,SGP4,2022-08-11T05:19:06.620160,14.76632825,0.0008961,98.2039,300.2383,3.2855,356.8411,0,U,999,55028,0.00013606,8.97e-06,0.0,7018.11,97.519,646.264,633.686,DEBRIS,LARGE,JPN,2012-05-17,TNSTA,,3534319,210019338,0 H-2A DEB,1 38347U 12025H   22223.22160440  .00000897  00000-0  13606-3 0  9998,2 38347  98.2039 300.2383 0008961   3.2855 356.8411 14.76632825550286
38771,METOP-B,2022-08-11T11:34:39.000,1096287.0373449782,11:36:11.000,93,882466.3758956793,11:37:43.000,184,1098325.108204857,13.648,2.0,GENERATED VIA SPACE-TRACK.ORG API,2022-08-11T21:36:11,18 SPCS,2012-049A,EARTH,TEME,UTC,SGP4,2022-08-11T19:42:07.791264,14.21500535,5.32e-05,98.6921,282.7442,123.6736,348.7198,0,U,999,51359,4.1631e-05,4.7e-07,0.0,7198.42,101.301,820.668,819.902,PAYLOAD,LARGE,EUME,2012-09-17,TTMTR,,3534435,210033445,0 METOP-B,1 38771U 12049A   22223.82092351  .00000047  00000-0  41631-4 0  9993,2 38771  98.6921 282.7442 0000532 123.6736 348.7198 14.21500535513599
39242,CZ-4C R/B,2022-08-11T12:30:49.000,1099992.193597263,12:32:27.000,99,846234.9245993629,12:34:06.000,197,1099961.9952229524,6.4571,2.0,GENERATED VIA SPACE-TRACK.ORG API,2022-08-11T06:56:12,18 SPCS,2013-046D,EARTH,TEME,UTC,SGP4,2022-08-11T03:48:05.061024,13.69876867,0.0467419,63.4401,111.732,353.692,5.8356,0,U,999,44726,4.0309e-05,-2.8e-07,0.0,7378.15,105.119,1344.884,655.146,ROCKET BODY,LARGE,PRC,2013-09-01,JSC,,3534025,210000468,0 CZ-4C R/B,1 39242U 13046D   22223.15839191 -.00000028  00000-0  40309-4 0  9993,2 39242  63.4401 111.7320 0467419 353.6920   5.8356 13.69876867447265
39271,CUSAT 2/FALCON 9,2022-08-11T13:22:48.000,1096875.1395088998,13:23:59.000,72,959261.3233997208,13:25:11.000,143,1098705.2958654938,17.877,2.0,GENERATED VIA SPACE-TRACK.ORG API,2022-08-11T22:36:11,18 SPCS,2013-055G,EARTH,TEME,UTC,SGP4,2022-08-11T18:20:45.312576,14.65142838,0.0518567,80.9588,134.2028,306.8312,48.6369,0,U,999,46486,0.00032609,0.00015165,0.0,7054.754,98.284,1042.455,310.783,PAYLOAD,LARGE,US,2013-09-29,AFWTR,,3534575,210036938,0 CUSAT 2/FALCON 9,1 39271U 13055G   22223.76441334  .00015165  00000-0  32609-3 0  9990,2 39271  80.9588 134.2028 0518567 306.8312  48.6369 14.65142838464863
39452,SWARM A,2022-08-11T18:24:35.000,1097597.9468048017,18:26:43.000,129,570698.7110923711,18:28:50.000,255,1094998.3470502482,2.2407,2.0,GENERATED VIA SPACE-TRACK.ORG API,2022-08-11T22:36:11,18 SPCS,2013-067B,EARTH,TEME,UTC,SGP4,2022-08-11T16:54:13.642848,15.32820886,0.0002945,87.3617,204.7966,105.4294,254.7283,0,U,999,49044,8.9681e-05,2.879e-05,0.0,6845.538,93.944,469.419,465.387,PAYLOAD,LARGE,ESA,2013-11-22,PKMTR,,3534557,210037052,0 SWARM A,1 39452U 13067B   22223.70432457  .00002879  00000-0  89681-4 0  9995,2 39452  87.3617 204.7966 0002945 105.4294 254.7283 15.32820886490441
